{
  "links" : {
    "next" : "https://api.nasa.gov/neo/rest/v1/feed?start_date=2001-04-16&end_date=2001-04-16&detailed=true&api_key=t0TVs3DtDT2H8Oy2Zy8m2eVrNsAVKAexjcZXUckd",
    "prev" : "https://api.nasa.gov/neo/rest/v1/feed?start_date=2001-04-14&end_date=2001-04-14&detailed=true&api_key=t0TVs3DtDT2H8Oy2Zy8m2eVrNsAVKAexjcZXUckd",
    "self" : "https://api.nasa.gov/neo/rest/v1/feed?start_date=2001-04-15&end_date=2001-04-15&detailed=true&api_key=t0TVs3DtDT2H8Oy2Zy8m2eVrNsAVKAexjcZXUckd"
  },
  "element_count" : 2,
  "near_earth_objects" : {
    "2001-04-15" : [ {
      "links" : {
        "self" : "https://api.nasa.gov/neo/rest/v1/neo/2189630?api_key=t0TVs3DtDT2H8Oy2Zy8m2eVrNsAVKAexjcZXUckd"
      },
      "neo_reference_id" : "2189630",
      "name" : "189630 (2001 LE6)",
      "nasa_jpl_url" : "http://ssd.jpl.nasa.gov/sbdb.cgi?sstr=2189630",
      "absolute_magnitude_h" : 17.8,
      "estimated_diameter" : {
        "kilometers" : {
          "estimated_diameter_min" : 0.7320739893,
          "estimated_diameter_max" : 1.6369672047
        },
        "meters" : {
          "estimated_diameter_min" : 732.0739893473,
          "estimated_diameter_max" : 1636.96720474
        },
        "miles" : {
          "estimated_diameter_min" : 0.4548895468,
          "estimated_diameter_max" : 1.017163949
        },
        "feet" : {
          "estimated_diameter_min" : 2401.8176272101,
          "estimated_diameter_max" : 5370.6274839991
        }
      },
      "is_potentially_hazardous_asteroid" : false,
      "close_approach_data" : [ {
        "close_approach_date" : "2001-04-15",
        "epoch_date_close_approach" : 987318000000,
        "relative_velocity" : {
          "kilometers_per_second" : "15.1668934371",
          "kilometers_per_hour" : "54600.8163734009",
          "miles_per_hour" : "33926.8239293501"
        },
        "miss_distance" : {
          "astronomical" : "0.4955373018",
          "lunar" : "192.7640075684",
          "kilometers" : "74131328",
          "miles" : "46063072"
        },
        "orbiting_body" : "Earth"
      } ],
      "orbital_data" : {
        "orbit_id" : "58",
        "orbit_determination_date" : "2017-06-22 06:21:44",
        "orbit_uncertainty" : "0",
        "minimum_orbit_intersection" : ".126462",
        "jupiter_tisserand_invariant" : "4.992",
        "epoch_osculation" : "2458000.5",
        "eccentricity" : ".693052275559326",
        "semi_major_axis" : "1.205977678707015",
        "inclination" : "12.6295384519669",
        "ascending_node_longitude" : "290.5683790572897",
        "orbital_period" : "483.7347994085201",
        "perihelion_distance" : ".3701721042053644",
        "perihelion_argument" : "201.5142518817539",
        "aphelion_distance" : "2.041783253208665",
        "perihelion_time" : "2457792.690778081686",
        "mean_anomaly" : "154.6535828765421",
        "mean_motion" : ".7442094313664945",
        "equinox" : "J2000"
      }
    }, {
      "links" : {
        "self" : "https://api.nasa.gov/neo/rest/v1/neo/2396593?api_key=t0TVs3DtDT2H8Oy2Zy8m2eVrNsAVKAexjcZXUckd"
      },
      "neo_reference_id" : "2396593",
      "name" : "396593 (2001 HC)",
      "nasa_jpl_url" : "http://ssd.jpl.nasa.gov/sbdb.cgi?sstr=2396593",
      "absolute_magnitude_h" : 19.0,
      "estimated_diameter" : {
        "kilometers" : {
          "estimated_diameter_min" : 0.4212646106,
          "estimated_diameter_max" : 0.9419763057
        },
        "meters" : {
          "estimated_diameter_min" : 421.2646105562,
          "estimated_diameter_max" : 941.9763057186
        },
        "miles" : {
          "estimated_diameter_min" : 0.2617616123,
          "estimated_diameter_max" : 0.5853167591
        },
        "feet" : {
          "estimated_diameter_min" : 1382.1017848971,
          "estimated_diameter_max" : 3090.4735428537
        }
      },
      "is_potentially_hazardous_asteroid" : false,
      "close_approach_data" : [ {
        "close_approach_date" : "2001-04-15",
        "epoch_date_close_approach" : 987318000000,
        "relative_velocity" : {
          "kilometers_per_second" : "14.9416105585",
          "kilometers_per_hour" : "53789.7980106518",
          "miles_per_hour" : "33422.8886583409"
        },
        "miss_distance" : {
          "astronomical" : "0.1619113222",
          "lunar" : "62.983505249",
          "kilometers" : "24221590",
          "miles" : "15050598"
        },
        "orbiting_body" : "Earth"
      } ],
      "orbital_data" : {
        "orbit_id" : "52",
        "orbit_determination_date" : "2017-04-06 09:21:55",
        "orbit_uncertainty" : "0",
        "minimum_orbit_intersection" : ".105547",
        "jupiter_tisserand_invariant" : "6.599",
        "epoch_osculation" : "2458000.5",
        "eccentricity" : ".4993659075098179",
        "semi_major_axis" : ".8746362344900773",
        "inclination" : "23.74080552331273",
        "ascending_node_longitude" : "32.61481696018888",
        "orbital_period" : "298.7718146790418",
        "perihelion_distance" : ".4378727175129701",
        "perihelion_argument" : "28.16835412789172",
        "aphelion_distance" : "1.311399751467185",
        "perihelion_time" : "2457902.647884907458",
        "mean_anomaly" : "117.9052363796694",
        "mean_motion" : "1.204932936484431",
        "equinox" : "J2000"
      }
    } ]
  }
}